[{"OBJECT_NAME":"STARLINK-36226","OBJECT_ID":"2025-304T","EPOCH":"2026-03-09T17:12:07.682112","MEAN_MOTION":14.98337076,"ECCENTRICITY":0.00031316,"INCLINATION":70.0021,"RA_OF_ASC_NODE":174.5944,"ARG_OF_PERICENTER":273.3246,"MEAN_ANOMALY":86.7555,"EPHEMERIS_TYPE":0,"CLASSIFICATION_TYPE":"U","NORAD_CAT_ID":67209,"ELEMENT_SET_NO":999,"REV_AT_EPOCH":1388,"BSTAR":0.00030155892,"MEAN_MOTION_DOT":3.508e-5,"MEAN_MOTION_DDOT":0},{"OBJECT_NAME":"COSMOS 2251 DEB","OBJECT_ID":"1993-036SS","EPOCH":"2026-03-09T22:59:54.978144","MEAN_MOTION":15.02003149,"ECCENTRICITY":0.00206055,"INCLINATION":74.0288,"RA_OF_ASC_NODE":253.6967,"ARG_OF_PERICENTER":277.4018,"MEAN_ANOMALY":234.4946,"EPHEMERIS_TYPE":0,"CLASSIFICATION_TYPE":"U","NORAD_CAT_ID":34449,"ELEMENT_SET_NO":999,"REV_AT_EPOCH":89999,"BSTAR":0.0029470254,"MEAN_MOTION_DOT":0.00038984,"MEAN_MOTION_DDOT":0}]
